ONEWEB-0703             
1 56724U 23068Q   25326.45836600  .00000130  00000+0  31018-3 0  9992
2 56724  87.8963 300.4637 0002729 102.1898 257.9538 13.15548841122070
ONEWEB-0721             
1 56725U 23068R   25325.98381905 -.00000075  00000+0 -21449-3 0  9990
2 56725  86.6793 151.6083 0001454  88.6859 271.4441 13.22452190130554
ONEWEB-0015             
1 61594U 24188A   25326.31632448 -.00000094  00000+0 -30078-3 0  9992
2 61594  87.8865  62.2964 0001381 123.0832 237.0428 13.11417881 57340
ONEWEB-0687             
1 61595U 24188B   25326.22879453  .00000279  00000+0  68414-3 0  9990
2 61595  87.9121  47.0551 0001172 100.4425 259.6839 13.17650100 58644
ONEWEB-0688             
1 61596U 24188C   25326.25745376 -.00000048  00000+0 -15676-3 0  9998
2 61596  87.9119  47.0493 0001347 150.1363 209.9845 13.17647439 58640
ONEWEB-0689             
1 61597U 24188D   25326.27393372  .00000267  00000+0  71828-3 0  9998
2 61597  87.8852  62.2422 0001393  94.5502 265.5785 13.11413449 57334
ONEWEB-0690             
1 61598U 24188E   25326.20781541 -.00000192  00000+0 -57693-3 0  9994
2 61598  87.8886  62.2626 0002393 110.2284 249.9101 13.11414871 57509
ONEWEB-0691             
1 61599U 24188F   25326.27902587  .00000111  00000+0  27712-3 0  9995
2 61599  87.8830  62.1573 0001526 118.0222 242.1061 13.11415085 57366
ONEWEB-0692             
1 61600U 24188G   25326.22305448 -.00000454  00000+0 -13157-2 0  9995
2 61600  87.8859  62.3087 0002064  77.1411 282.9947 13.11417674 57344
ONEWEB-0693             
1 61601U 24188H   25326.19333720  .00000040  00000+0  70311-4 0  9992
2 61601  87.9122  47.0811 0002459 116.6071 243.5312 13.17646799 58622
ONEWEB-0695             
1 61602U 24188J   25326.35192627  .00000286  00000+0  77129-3 0  9995
2 61602  87.8863  62.2716 0001537  84.5915 275.5389 13.11413905 57356
ONEWEB-0697             
1 61603U 24188K   25326.30784641 -.00000442  00000+0 -12819-2 0  9994
2 61603  87.8863  62.2707 0002023  80.4217 279.7139 13.11418777 57337
ONEWEB-0698             
1 61604U 24188L   25326.43840054 -.00000200  00000+0 -60134-3 0  9996
2 61604  87.8861  62.2598 0002699  91.1917 268.9520 13.11414864 57370
ONEWEB-0699             
1 61605U 24188M   25326.36303454 -.00000189  00000+0 -57828-3 0  9999
2 61605  87.8810  77.4873 0002026  84.5948 275.5410 13.10375970 56221
ONEWEB-0700             
1 61606U 24188N   25326.36470323  .00000284  00000+0  77823-3 0  9991
2 61606  87.8822  77.3713 0001481  75.3036 284.8256 13.10378429 56219
ONEWEB-0701             
1 61607U 24188P   25326.38131522  .00000708  00000+0  19905-2 0  9996
2 61607  87.8810  77.4853 0002095  80.5793 279.5571 13.10371547 56229
ONEWEB-0702             
1 61608U 24188Q   25326.33157590 -.00000680  00000+0 -19557-2 0  9999
2 61608  87.8813  62.1741 0001862  73.9280 286.2053 13.11421346 57379
