[{"OBJECT_NAME":"ONEWEB-0703","OBJECT_ID":"2023-068Q","EPOCH":"2025-11-22T11:00:02.822400","MEAN_MOTION":13.15548841,"ECCENTRICITY":0.0002729,"INCLINATION":87.8963,"RA_OF_ASC_NODE":300.4637,"ARG_OF_PERICENTER":102.1898,"MEAN_ANOMALY":257.9538,"EPHEMERIS_TYPE":0,"CLASSIFICATION_TYPE":"U","NORAD_CAT_ID":56724,"ELEMENT_SET_NO":999,"REV_AT_EPOCH":12207,"BSTAR":0.00031018,"MEAN_MOTION_DOT":1.3e-6,"MEAN_MOTION_DDOT":0},{"OBJECT_NAME":"ONEWEB-0721","OBJECT_ID":"2023-068R","EPOCH":"2025-11-21T23:36:41.965920","MEAN_MOTION":13.2245219,"ECCENTRICITY":0.0001454,"INCLINATION":86.6793,"RA_OF_ASC_NODE":151.6083,"ARG_OF_PERICENTER":88.6859,"MEAN_ANOMALY":271.4441,"EPHEMERIS_TYPE":0,"CLASSIFICATION_TYPE":"U","NORAD_CAT_ID":56725,"ELEMENT_SET_NO":999,"REV_AT_EPOCH":13055,"BSTAR":-0.00021449,"MEAN_MOTION_DOT":-7.5e-7,"MEAN_MOTION_DDOT":0},{"OBJECT_NAME":"ONEWEB-0015","OBJECT_ID":"2024-188A","EPOCH":"2025-11-22T07:35:30.435072","MEAN_MOTION":13.11417881,"ECCENTRICITY":0.0001381,"INCLINATION":87.8865,"RA_OF_ASC_NODE":62.2964,"ARG_OF_PERICENTER":123.0832,"MEAN_ANOMALY":237.0428,"EPHEMERIS_TYPE":0,"CLASSIFICATION_TYPE":"U","NORAD_CAT_ID":61594,"ELEMENT_SET_NO":999,"REV_AT_EPOCH":5734,"BSTAR":-0.00030078,"MEAN_MOTION_DOT":-9.4e-7,"MEAN_MOTION_DDOT":0},{"OBJECT_NAME":"ONEWEB-0687","OBJECT_ID":"2024-188B","EPOCH":"2025-11-22T05:29:27.847392","MEAN_MOTION":13.176501,"ECCENTRICITY":0.0001172,"INCLINATION":87.9121,"RA_OF_ASC_NODE":47.0551,"ARG_OF_PERICENTER":100.4425,"MEAN_ANOMALY":259.6839,"EPHEMERIS_TYPE":0,"CLASSIFICATION_TYPE":"U","NORAD_CAT_ID":61595,"ELEMENT_SET_NO":999,"REV_AT_EPOCH":5864,"BSTAR":0.00068414,"MEAN_MOTION_DOT":2.79e-6,"MEAN_MOTION_DDOT":0},{"OBJECT_NAME":"ONEWEB-0688","OBJECT_ID":"2024-188C","EPOCH":"2025-11-22T06:10:44.004864","MEAN_MOTION":13.17647439,"ECCENTRICITY":0.0001347,"INCLINATION":87.9119,"RA_OF_ASC_NODE":47.0493,"ARG_OF_PERICENTER":150.1363,"MEAN_ANOMALY":209.9845,"EPHEMERIS_TYPE":0,"CLASSIFICATION_TYPE":"U","NORAD_CAT_ID":61596,"ELEMENT_SET_NO":999,"REV_AT_EPOCH":5864,"BSTAR":-0.00015676,"MEAN_MOTION_DOT":-4.8e-7,"MEAN_MOTION_DDOT":0},{"OBJECT_NAME":"ONEWEB-0689","OBJECT_ID":"2024-188D","EPOCH":"2025-11-22T06:34:27.873408","MEAN_MOTION":13.11413449,"ECCENTRICITY":0.0001393,"INCLINATION":87.8852,"RA_OF_ASC_NODE":62.2422,"ARG_OF_PERICENTER":94.5502,"MEAN_ANOMALY":265.5785,"EPHEMERIS_TYPE":0,"CLASSIFICATION_TYPE":"U","NORAD_CAT_ID":61597,"ELEMENT_SET_NO":999,"REV_AT_EPOCH":5733,"BSTAR":0.00071828,"MEAN_MOTION_DOT":2.67e-6,"MEAN_MOTION_DDOT":0},{"OBJECT_NAME":"ONEWEB-0690","OBJECT_ID":"2024-188E","EPOCH":"2025-11-22T04:59:15.251424","MEAN_MOTION":13.11414871,"ECCENTRICITY":0.0002393,"INCLINATION":87.8886,"RA_OF_ASC_NODE":62.2626,"ARG_OF_PERICENTER":110.2284,"MEAN_ANOMALY":249.9101,"EPHEMERIS_TYPE":0,"CLASSIFICATION_TYPE":"U","NORAD_CAT_ID":61598,"ELEMENT_SET_NO":999,"REV_AT_EPOCH":5750,"BSTAR":-0.00057693,"MEAN_MOTION_DOT":-1.92e-6,"MEAN_MOTION_DDOT":0},{"OBJECT_NAME":"ONEWEB-0691","OBJECT_ID":"2024-188F","EPOCH":"2025-11-22T06:41:47.835168","MEAN_MOTION":13.11415085,"ECCENTRICITY":0.0001526,"INCLINATION":87.883,"RA_OF_ASC_NODE":62.1573,"ARG_OF_PERICENTER":118.0222,"MEAN_ANOMALY":242.1061,"EPHEMERIS_TYPE":0,"CLASSIFICATION_TYPE":"U","NORAD_CAT_ID":61599,"ELEMENT_SET_NO":999,"REV_AT_EPOCH":5736,"BSTAR":0.00027712,"MEAN_MOTION_DOT":1.11e-6,"MEAN_MOTION_DDOT":0},{"OBJECT_NAME":"ONEWEB-0692","OBJECT_ID":"2024-188G","EPOCH":"2025-11-22T05:21:11.907072","MEAN_MOTION":13.11417674,"ECCENTRICITY":0.0002064,"INCLINATION":87.8859,"RA_OF_ASC_NODE":62.3087,"ARG_OF_PERICENTER":77.1411,"MEAN_ANOMALY":282.9947,"EPHEMERIS_TYPE":0,"CLASSIFICATION_TYPE":"U","NORAD_CAT_ID":61600,"ELEMENT_SET_NO":999,"REV_AT_EPOCH":5734,"BSTAR":-0.0013157,"MEAN_MOTION_DOT":-4.54e-6,"MEAN_MOTION_DDOT":0},{"OBJECT_NAME":"ONEWEB-0693","OBJECT_ID":"2024-188H","EPOCH":"2025-11-22T04:38:24.334080","MEAN_MOTION":13.17646799,"ECCENTRICITY":0.0002459,"INCLINATION":87.9122,"RA_OF_ASC_NODE":47.0811,"ARG_OF_PERICENTER":116.6071,"MEAN_ANOMALY":243.5312,"EPHEMERIS_TYPE":0,"CLASSIFICATION_TYPE":"U","NORAD_CAT_ID":61601,"ELEMENT_SET_NO":999,"REV_AT_EPOCH":5862,"BSTAR":7.0311e-5,"MEAN_MOTION_DOT":4.0e-7,"MEAN_MOTION_DDOT":0},{"OBJECT_NAME":"ONEWEB-0695","OBJECT_ID":"2024-188J","EPOCH":"2025-11-22T08:26:46.429728","MEAN_MOTION":13.11413905,"ECCENTRICITY":0.0001537,"INCLINATION":87.8863,"RA_OF_ASC_NODE":62.2716,"ARG_OF_PERICENTER":84.5915,"MEAN_ANOMALY":275.5389,"EPHEMERIS_TYPE":0,"CLASSIFICATION_TYPE":"U","NORAD_CAT_ID":61602,"ELEMENT_SET_NO":999,"REV_AT_EPOCH":5735,"BSTAR":0.00077129,"MEAN_MOTION_DOT":2.86e-6,"MEAN_MOTION_DDOT":0},{"OBJECT_NAME":"ONEWEB-0697","OBJECT_ID":"2024-188K","EPOCH":"2025-11-22T07:23:17.929824","MEAN_MOTION":13.11418777,"ECCENTRICITY":0.0002023,"INCLINATION":87.8863,"RA_OF_ASC_NODE":62.2707,"ARG_OF_PERICENTER":80.4217,"MEAN_ANOMALY":279.7139,"EPHEMERIS_TYPE":0,"CLASSIFICATION_TYPE":"U","NORAD_CAT_ID":61603,"ELEMENT_SET_NO":999,"REV_AT_EPOCH":5733,"BSTAR":-0.0012819,"MEAN_MOTION_DOT":-4.42e-6,"MEAN_MOTION_DDOT":0},{"OBJECT_NAME":"ONEWEB-0698","OBJECT_ID":"2024-188L","EPOCH":"2025-11-22T10:31:17.806656","MEAN_MOTION":13.11414864,"ECCENTRICITY":0.0002699,"INCLINATION":87.8861,"RA_OF_ASC_NODE":62.2598,"ARG_OF_PERICENTER":91.1917,"MEAN_ANOMALY":268.952,"EPHEMERIS_TYPE":0,"CLASSIFICATION_TYPE":"U","NORAD_CAT_ID":61604,"ELEMENT_SET_NO":999,"REV_AT_EPOCH":5737,"BSTAR":-0.00060134,"MEAN_MOTION_DOT":-2.0e-6,"MEAN_MOTION_DDOT":0},{"OBJECT_NAME":"ONEWEB-0699","OBJECT_ID":"2024-188M","EPOCH":"2025-11-22T08:42:46.184256","MEAN_MOTION":13.1037597,"ECCENTRICITY":0.0002026,"INCLINATION":87.881,"RA_OF_ASC_NODE":77.4873,"ARG_OF_PERICENTER":84.5948,"MEAN_ANOMALY":275.541,"EPHEMERIS_TYPE":0,"CLASSIFICATION_TYPE":"U","NORAD_CAT_ID":61605,"ELEMENT_SET_NO":999,"REV_AT_EPOCH":5622,"BSTAR":-0.00057828,"MEAN_MOTION_DOT":-1.89e-6,"MEAN_MOTION_DDOT":0},{"OBJECT_NAME":"ONEWEB-0700","OBJECT_ID":"2024-188N","EPOCH":"2025-11-22T08:45:10.359072","MEAN_MOTION":13.10378429,"ECCENTRICITY":0.0001481,"INCLINATION":87.8822,"RA_OF_ASC_NODE":77.3713,"ARG_OF_PERICENTER":75.3036,"MEAN_ANOMALY":284.8256,"EPHEMERIS_TYPE":0,"CLASSIFICATION_TYPE":"U","NORAD_CAT_ID":61606,"ELEMENT_SET_NO":999,"REV_AT_EPOCH":5621,"BSTAR":0.00077823,"MEAN_MOTION_DOT":2.84e-6,"MEAN_MOTION_DDOT":0},{"OBJECT_NAME":"ONEWEB-0701","OBJECT_ID":"2024-188P","EPOCH":"2025-11-22T09:09:05.635008","MEAN_MOTION":13.10371547,"ECCENTRICITY":0.0002095,"INCLINATION":87.881,"RA_OF_ASC_NODE":77.4853,"ARG_OF_PERICENTER":80.5793,"MEAN_ANOMALY":279.5571,"EPHEMERIS_TYPE":0,"CLASSIFICATION_TYPE":"U","NORAD_CAT_ID":61607,"ELEMENT_SET_NO":999,"REV_AT_EPOCH":5622,"BSTAR":0.0019905,"MEAN_MOTION_DOT":7.08e-6,"MEAN_MOTION_DDOT":0},{"OBJECT_NAME":"ONEWEB-0702","OBJECT_ID":"2024-188Q","EPOCH":"2025-11-22T07:57:28.157760","MEAN_MOTION":13.11421346,"ECCENTRICITY":0.0001862,"INCLINATION":87.8813,"RA_OF_ASC_NODE":62.1741,"ARG_OF_PERICENTER":73.928,"MEAN_ANOMALY":286.2053,"EPHEMERIS_TYPE":0,"CLASSIFICATION_TYPE":"U","NORAD_CAT_ID":61608,"ELEMENT_SET_NO":999,"REV_AT_EPOCH":5737,"BSTAR":-0.0019557,"MEAN_MOTION_DOT":-6.8e-6,"MEAN_MOTION_DDOT":0}]
